{
  "norad_id": 58385,
  "name": "STARLINK-30930",
  "history": [
    {
      "epoch": "2026-03-28T19:22:21.151200",
      "apogee_km": 475.99173025166783,
      "perigee_km": 474.455206834622,
      "latitude_deg": -37.746459628176204,
      "longitude_deg": 95.99016800010577,
      "semi_major_axis_km": 6853.360468543145,
      "eccentricity": 0.0001121,
      "inclination_deg": 53.1601,
      "raan_deg": 271.9008,
      "arg_perigee_deg": 93.7485,
      "mean_anomaly_deg": 266.3644,
      "mean_motion_rev_day": 15.30197187
    }
  ]
}